 Observer Coords. (lat,lon,H)= 37.0328  15.0650  370.0
STARLINK A              
1 44235U 19029A   19163.43482744 -.01005037  00000-0 -62839-1 0  9992
2 44235  52.9966  85.4809 0003388 185.4893 174.6061 15.12075727  4197
 JD0= 2458646.93482744    dt= 1.40892256   ideep= 0
 2019/6/13.84375 Azim.[deg]= 313.6817   Height[deg]=   0.6248   Visible
 Topoc.Dist.(`range`) [km]=  2671.214
 (X,Y,Z)={   -4288   -1137    5298} -> r_geoc=   6910 km
------------------
STARLINK B              
1 44236U 19029B   19159.34247060 -.03129679  00000-0 -19816+0 0  9994
2 44236  52.9978 104.2036 0057758 189.9299 170.0554 15.10999854  3574
 JD0= 2458642.84247060    dt= 5.50127940   ideep= 0
 2019/6/13.84375 Azim.[deg]= 122.7545   Height[deg]=  -1.9625   NOT-Visible
 Topoc.Dist.(`range`) [km]=  2944.361
 (X,Y,Z)={   -2920   -5772    2489} -> r_geoc=   6931 km
------------------
STARLINK C              
1 44237U 19029C   19161.46256439 -.00864179  00000-0 -47826-1 0  9993
2 44237  52.9971  94.4072 0001517 131.2079 228.9044 15.15970275  2775
 JD0= 2458644.96256439    dt= 3.38118561   ideep= 0
 2019/6/13.84375 Azim.[deg]= 309.9369   Height[deg]= -26.9715   NOT-Visible
 Topoc.Dist.(`range`) [km]=  6842.351
 (X,Y,Z)={   -3247    3375    5077} -> r_geoc=   6907 km
------------------
STARLINK D              
1 44238U 19029D   19159.87004403 -.00948815  00000-0 -49050-1 0  9999
2 44238  52.9941 101.2993 0005035  64.9750 295.1766 15.18556216  2471
 JD0= 2458643.37004403    dt= 4.97370597   ideep= 0
 2019/6/13.84375 Azim.[deg]= 323.7170   Height[deg]=  29.0700   Visible
 Topoc.Dist.(`range`) [km]=   994.705
 (X,Y,Z)={   -4174   -2908    4671} -> r_geoc=   6907 km
------------------
STARLINK E              
1 44239U 19029E   19163.41940016 -.00710268  00000-0 -47224-1 0  9994
2 44239  53.0045  85.7576 0003002 128.8257 231.3001 15.09345479  2983
 JD0= 2458646.91940016    dt= 1.42434984   ideep= 0
 2019/6/13.84375 Azim.[deg]= 126.6990   Height[deg]= -19.9344   NOT-Visible
 Topoc.Dist.(`range`) [km]=  5624.035
 (X,Y,Z)={   -1387   -6780     143} -> r_geoc=   6922 km
------------------
STARLINK F              
1 44240U 19029F   19163.32431822 -.00628742  00000-0 -29226-1 0  9993
2 44240  53.0021  85.3244 0001996  82.1787 277.9434 15.21977692  3054
 JD0= 2458646.82431822    dt= 1.51943178   ideep= 0
 2019/6/13.84375 Azim.[deg]= 309.4876   Height[deg]= -39.9603   NOT-Visible
 Topoc.Dist.(`range`) [km]=  8954.815
 (X,Y,Z)={   -1843    5401    3841} -> r_geoc=   6879 km
------------------
STARLINK G              
1 44241U 19029G   19160.31885404 -.00909677  00000-0 -55249-1 0  9992
2 44241  52.9986  99.7722 0002848  38.7034 321.4161 15.12822168  2601
 JD0= 2458643.81885404    dt= 4.52489596   ideep= 0
 2019/6/13.84375 Azim.[deg]= 315.0848   Height[deg]=   5.0747   Visible
 Topoc.Dist.(`range`) [km]=  2226.754
 (X,Y,Z)={   -4285   -1617    5190} -> r_geoc=   6922 km
------------------
STARLINK H              
1 44242U 19029H   19159.01130896 -.00724715  00000-0 -33338-1 0  9999
2 44242  52.9989 105.3225 0002493  95.6313 264.4967 15.22276094  2405
 JD0= 2458642.51130896    dt= 5.83244104   ideep= 0
 2019/6/13.84375 Azim.[deg]= 128.7268   Height[deg]= -39.6629   NOT-Visible
 Topoc.Dist.(`range`) [km]=  8909.380
 (X,Y,Z)={    1103   -6106   -3030} -> r_geoc=   6905 km
------------------
STARLINK J              
1 44243U 19029J   19159.13010813 -.01182145  00000-0 -30939-1 0  9999
2 44243  52.9924 103.9311 0006956 266.0543  93.9665 15.41004997  2415
 JD0= 2458642.63010813    dt= 5.71364187   ideep= 0
 2019/6/13.84375 Azim.[deg]= 130.6378   Height[deg]= -65.7614   NOT-Visible
 Topoc.Dist.(`range`) [km]= 12135.968
 (X,Y,Z)={    3815   -1707   -5435} -> r_geoc=   6856 km
------------------
STARLINK K              
1 44244U 19029K   19163.38653901 -.00758666  00000-0 -47380-1 0  9997
2 44244  52.9992  85.5337 0002274  64.5565 295.5661 15.11779957  3035
 JD0= 2458646.88653901    dt= 1.45721099   ideep= 0
 2019/6/13.84375 Azim.[deg]= 307.9408   Height[deg]= -58.4690   NOT-Visible
 Topoc.Dist.(`range`) [km]= 11502.236
 (X,Y,Z)={     668    6828     868} -> r_geoc=   6915 km
------------------
STARLINK L              
1 44245U 19029L   19163.29787488 -.00629054  00000-0 -41742-1 0  9990
2 44245  53.0030  86.1800 0002258  85.3426 274.7822 15.09123361  3039
 JD0= 2458646.79787488    dt= 1.54587512   ideep= 0
 2019/6/13.84375 Azim.[deg]= 319.3742   Height[deg]=  17.1161   Visible
 Topoc.Dist.(`range`) [km]=  1413.449
 (X,Y,Z)={   -4223   -2468    4889} -> r_geoc=   6916 km
------------------
STARLINK M              
1 44246U 19029M   19163.31101329 -.00760536  00000-0 -46010-1 0  9992
2 44246  52.9992  85.9871 0001200  62.6704 297.4410 15.12926520  2994
 JD0= 2458646.81101329    dt= 1.53273671   ideep= 0
 2019/6/13.84375 Azim.[deg]= 309.9022   Height[deg]= -27.5287   NOT-Visible
 Topoc.Dist.(`range`) [km]=  6936.153
 (X,Y,Z)={   -3198    3473    5039} -> r_geoc=   6906 km
------------------
STARLINK N              
1 44247U 19029N   19163.18938660 -.00831851  00000-0 -51862-1 0  9994
2 44247  52.9992  86.4205 0003475  65.4821 294.6532 15.11646881  3060
 JD0= 2458646.68938660    dt= 1.65436340   ideep= 0
 2019/6/13.84375 Azim.[deg]= 307.5004   Height[deg]= -63.5419   NOT-Visible
 Topoc.Dist.(`range`) [km]= 12023.154
 (X,Y,Z)={    1371    6781     -59} -> r_geoc=   6918 km
------------------
STARLINK P              
1 44248U 19029P   19158.35847576 -.00568487  00000-0 -25315-1 0  9999
2 44248  52.9990 108.3647 0001398  75.3106 284.8044 15.23190220  2243
 JD0= 2458641.85847576    dt= 6.48527424   ideep= 0
 2019/6/13.84375 Azim.[deg]= 128.8340   Height[deg]= -41.4720   NOT-Visible
 Topoc.Dist.(`range`) [km]=  9183.388
 (X,Y,Z)={    1337   -5917   -3287} -> r_geoc=   6900 km
------------------
STARLINK Q              
1 44249U 19029Q   19163.38336519 -.00723113  00000-0 -44159-1 0  9995
2 44249  53.0002  85.5893 0002334  80.4330 279.6924 15.12451403  3078
 JD0= 2458646.88336519    dt= 1.46038481   ideep= 0
 2019/6/13.84375 Azim.[deg]= 308.6717   Height[deg]= -47.2708   NOT-Visible
 Topoc.Dist.(`range`) [km]= 10086.849
 (X,Y,Z)={    -909    6264    2772} -> r_geoc=   6910 km
------------------
STARLINK R              
1 44250U 19029R   19161.19853593  .00265420  00000-0  11016-1 0  9996
2 44250  53.0010  95.5272 0002768  49.0826 311.0409 15.22197584  2697
 JD0= 2458644.69853593    dt= 3.64521407   ideep= 0
 2019/6/13.84375 Azim.[deg]= 128.2294   Height[deg]= -32.2257   NOT-Visible
 Topoc.Dist.(`range`) [km]=  7647.430
 (X,Y,Z)={      85   -6627   -1831} -> r_geoc=   6876 km
------------------
STARLINK S              
1 44251U 19029S   19162.96148913 -.00145025  00000-0 -70616-2 0  9998
2 44251  52.9953  87.1294 0008129 207.4320 152.6246 15.18496996  2927
 JD0= 2458646.46148913    dt= 1.88226087   ideep= 0
 2019/6/13.84375 Azim.[deg]= 128.8150   Height[deg]= -39.8520   NOT-Visible
 Topoc.Dist.(`range`) [km]=  8914.490
 (X,Y,Z)={    1107   -6079   -3044} -> r_geoc=   6888 km
------------------
STARLINK T              
1 44252U 19029T   19162.93285566 -.00913131  00000-0 -59396-1 0  9994
2 44252  52.9996  87.5686 0003897  55.6775 304.4584 15.10371060  2926
 JD0= 2458646.43285566    dt= 1.91089434   ideep= 0
 2019/6/13.84375 Azim.[deg]= 146.8420   Height[deg]= -87.1170   NOT-Visible
 Topoc.Dist.(`range`) [km]= 13283.765
 (X,Y,Z)={    4149    3083   -4616} -> r_geoc=   6930 km
------------------
STARLINK U              
1 44253U 19029U   19163.16393770 -.00674868  00000-0 -44743-1 0  9999
2 44253  53.0038  86.8368 0002161 132.4677 227.6495 15.09323883  3019
 JD0= 2458646.66393770    dt= 1.67981230   ideep= 0
 2019/6/13.84375 Azim.[deg]= 341.6926   Height[deg]=  48.2968   Visible
 Topoc.Dist.(`range`) [km]=   711.381
 (X,Y,Z)={   -4080   -3309    4499} -> r_geoc=   6917 km
------------------
STARLINK V              
1 44254U 19029V   19162.98280167 -.00755908  00000-0 -45391-1 0  9999
2 44254  52.9992  87.4702 0002107  37.3811 322.7327 15.13168843  2949
 JD0= 2458646.48280167    dt= 1.86094833   ideep= 0
 2019/6/13.84375 Azim.[deg]= 309.4031   Height[deg]= -34.7647   NOT-Visible
 Topoc.Dist.(`range`) [km]=  8158.970
 (X,Y,Z)={   -2481    4696    4415} -> r_geoc=   6907 km
------------------
STARLINK W              
1 44255U 19029W   19163.01563652 -.00969471  00000-0 -55906-1 0  9993
2 44255  52.9999  87.0462 0003840  44.4519 315.6780 15.14827181  2958
 JD0= 2458646.51563652    dt= 1.82811348   ideep= 0
 2019/6/13.84375 Azim.[deg]= 129.5950   Height[deg]= -55.5010   NOT-Visible
 Topoc.Dist.(`range`) [km]= 11138.977
 (X,Y,Z)={    3023   -3812   -4918} -> r_geoc=   6918 km
------------------
STARLINK X              
1 44256U 19029X   19163.30998758 -.00828903  00000-0 -50243-1 0  9998
2 44256  52.9970  85.7006 0001729 112.7804 247.3369 15.12654232  2965
 JD0= 2458646.80998758    dt= 1.53376242   ideep= 0
 2019/6/13.84375 Azim.[deg]= 310.1418   Height[deg]= -25.5909   NOT-Visible
 Topoc.Dist.(`range`) [km]=  6605.005
 (X,Y,Z)={   -3353    3123    5168} -> r_geoc=   6907 km
------------------
STARLINK Y              
1 44257U 19029Y   19163.00066205  .00006413  00000-0  25108-3 0  9995
2 44257  53.0023  86.7318 0001556  71.6994 288.4172 15.27060458  3006
 JD0= 2458646.50066205    dt= 1.84308795   ideep= 0
 2019/6/13.84375 Azim.[deg]= 309.9518   Height[deg]= -32.6110   NOT-Visible
 Topoc.Dist.(`range`) [km]=  7720.336
 (X,Y,Z)={   -2689    4263    4648} -> r_geoc=   6856 km
------------------
STARLINK Z              
1 44258U 19029Z   19163.31350221 -.00783257  00000-0 -48032-1 0  9993
2 44258  52.9988  85.9365 0002033 128.1703 231.9472 15.12520475  3038
